[{"OBJECT_NAME":"ONEWEB-0359","OBJECT_ID":"2021-090G","EPOCH":"2026-03-09T15:11:16.882656","MEAN_MOTION":13.20770889,"ECCENTRICITY":0.0001745,"INCLINATION":87.9172,"RA_OF_ASC_NODE":294.3123,"ARG_OF_PERICENTER":75.9083,"MEAN_ANOMALY":284.2244,"EPHEMERIS_TYPE":0,"CLASSIFICATION_TYPE":"U","NORAD_CAT_ID":49285,"ELEMENT_SET_NO":999,"REV_AT_EPOCH":21739,"BSTAR":7.3708e-5,"MEAN_MOTION_DOT":4.3e-7,"MEAN_MOTION_DDOT":0},{"OBJECT_NAME":"SL-14 DEB","OBJECT_ID":"1991-056BK","EPOCH":"2026-03-08T19:05:09.771072","MEAN_MOTION":13.19468012,"ECCENTRICITY":0.00216461,"INCLINATION":82.5627,"RA_OF_ASC_NODE":205.6097,"ARG_OF_PERICENTER":347.4477,"MEAN_ANOMALY":12.6105,"EPHEMERIS_TYPE":0,"CLASSIFICATION_TYPE":"U","NORAD_CAT_ID":45321,"ELEMENT_SET_NO":999,"REV_AT_EPOCH":29013,"BSTAR":0.00036913689,"MEAN_MOTION_DOT":1.6e-6,"MEAN_MOTION_DDOT":0}]
